NANOSATC-BR1            
1 40024U 14033Q   26068.98267556  .00020336  00000+0  74295-3 0  9994
2 40024  98.0845  92.7804 0004644 147.6715 212.4808 15.28136801638811
STARLINK-32091          
1 59684U 24086C   26068.98252116  .00002965  00000+0  11726-3 0  9999
2 59684  43.0011  50.7412 0001036 266.0164  94.0570 15.27567165104259
