[{"OBJECT_NAME":"NANOSATC-BR1","OBJECT_ID":"2014-033Q","EPOCH":"2026-03-09T23:35:03.168384","MEAN_MOTION":15.28136801,"ECCENTRICITY":0.00046435,"INCLINATION":98.0845,"RA_OF_ASC_NODE":92.7804,"ARG_OF_PERICENTER":147.6715,"MEAN_ANOMALY":212.4808,"EPHEMERIS_TYPE":0,"CLASSIFICATION_TYPE":"U","NORAD_CAT_ID":40024,"ELEMENT_SET_NO":999,"REV_AT_EPOCH":63881,"BSTAR":0.00074295057,"MEAN_MOTION_DOT":0.00020336,"MEAN_MOTION_DDOT":0},{"OBJECT_NAME":"STARLINK-32091","OBJECT_ID":"2024-086C","EPOCH":"2026-03-09T23:34:49.829088","MEAN_MOTION":15.27567165,"ECCENTRICITY":0.00010357,"INCLINATION":43.0011,"RA_OF_ASC_NODE":50.7412,"ARG_OF_PERICENTER":266.0164,"MEAN_ANOMALY":94.057,"EPHEMERIS_TYPE":0,"CLASSIFICATION_TYPE":"U","NORAD_CAT_ID":59684,"ELEMENT_SET_NO":999,"REV_AT_EPOCH":10425,"BSTAR":0.0001172637,"MEAN_MOTION_DOT":2.965e-5,"MEAN_MOTION_DDOT":0}]
